{
  "type": "FeatureCollection",
  "features": [
    {
      "type": "Feature",
      "properties": {
        "norad_id": 31737,
        "name": "FENGYUN 1C DEB",
        "group": "fengyun-1c-debris",
        "lat": 13.181223461751904,
        "lon": 12.162641661774233,
        "alt_km": 568.9212358152654,
        "timestamp": "2025-12-06T07:31:40.520718+00:00",
        "meta_object_name": "FENGYUN 1C DEB",
        "meta_object_id": "1999-025CEL",
        "meta_epoch": "2025-12-01T13:41:24.347616",
        "meta_mean_motion": 14.68604518,
        "meta_eccentricity": 0.0149838,
        "meta_inclination": 97.9197,
        "meta_ra_of_asc_node": 9.4352,
        "meta_arg_of_pericenter": 51.1715,
        "meta_mean_anomaly": 100.2858,
        "meta_ephemeris_type": 0,
        "meta_classification_type": "U",
        "meta_norad_cat_id": 31737,
        "meta_element_set_no": 999,
        "meta_rev_at_epoch": 98035,
        "meta_bstar": 0.00058137248,
        "meta_mean_motion_dot": 3.955e-05,
        "meta_mean_motion_ddot": 0,
        "tle_line1": "1 31737U 99025CEL 25335.57042069  .00003955  00000+0  58137-3 0  9995",
        "tle_line2": "2 31737  97.9197   9.4352 0149838  51.1715 100.2858 14.68604518980353"
      },
      "geometry": {
        "type": "Point",
        "coordinates": [
          12.162641661774233,
          13.181223461751904
        ]
      }
    },
    {
      "type": "Feature",
      "properties": {
        "norad_id": 31738,
        "name": "FENGYUN 1C DEB",
        "group": "fengyun-1c-debris",
        "lat": -3.2200911665743743,
        "lon": -132.97232280505233,
        "alt_km": 851.5035340268987,
        "timestamp": "2025-12-06T07:31:40.520728+00:00",
        "meta_object_name": "FENGYUN 1C DEB",
        "meta_object_id": "1999-025CEM",
        "meta_epoch": "2025-11-17T10:08:15.850752",
        "meta_mean_motion": 13.84884182,
        "meta_eccentricity": 0.03082109,
        "meta_inclination": 99.3633,
        "meta_ra_of_asc_node": 28.6808,
        "meta_arg_of_pericenter": 167.6176,
        "meta_mean_anomaly": 193.2777,
        "meta_ephemeris_type": 0,
        "meta_classification_type": "U",
        "meta_norad_cat_id": 31738,
        "meta_element_set_no": 999,
        "meta_rev_at_epoch": 61907,
        "meta_bstar": 0.0026324864,
        "meta_mean_motion_dot": 4.259e-05,
        "meta_mean_motion_ddot": 0,
        "tle_line1": "1 31738U 99025CEM 25321.42240568  .00004259  00000+0  26325-2 0  9990",
        "tle_line2": "2 31738  99.3633  28.6808 0308210 167.6176 193.2777 13.84884182619073"
      },
      "geometry": {
        "type": "Point",
        "coordinates": [
          -132.97232280505233,
          -3.2200911665743743
        ]
      }
    },
    {
      "type": "Feature",
      "properties": {
        "norad_id": 31739,
        "name": "FENGYUN 1C DEB",
        "group": "fengyun-1c-debris",
        "lat": 25.674680337661332,
        "lon": 31.480958002572063,
        "alt_km": 795.0182454799578,
        "timestamp": "2025-12-06T07:31:40.520738+00:00",
        "meta_object_name": "FENGYUN 1C DEB",
        "meta_object_id": "1999-025CEN",
        "meta_epoch": "2025-12-04T09:43:16.565376",
        "meta_mean_motion": 14.19211936,
        "meta_eccentricity": 0.0128477,
        "meta_inclination": 98.7488,
        "meta_ra_of_asc_node": 33.8416,
        "meta_arg_of_pericenter": 101.9973,
        "meta_mean_anomaly": 259.5637,
        "meta_ephemeris_type": 0,
        "meta_classification_type": "U",
        "meta_norad_cat_id": 31739,
        "meta_element_set_no": 999,
        "meta_rev_at_epoch": 95368,
        "meta_bstar": 0.00020031,
        "meta_mean_motion_dot": 4.13e-06,
        "meta_mean_motion_ddot": 0,
        "tle_line1": "1 31739U 99025CEN 25338.40505284  .00000413  00000+0  20031-3 0  9993",
        "tle_line2": "2 31739  98.7488  33.8416 0128477 101.9973 259.5637 14.19211936953688"
      },
      "geometry": {
        "type": "Point",
        "coordinates": [
          31.480958002572063,
          25.674680337661332
        ]
      }
    },
    {
      "type": "Feature",
      "properties": {
        "norad_id": 31740,
        "name": "FENGYUN 1C DEB",
        "group": "fengyun-1c-debris",
        "lat": 7.25456372736183,
        "lon": -28.048291603804582,
        "alt_km": 752.0844581885995,
        "timestamp": "2025-12-06T07:31:40.520748+00:00",
        "meta_object_name": "FENGYUN 1C DEB",
        "meta_object_id": "1999-025CEP",
        "meta_epoch": "2025-12-01T10:18:20.504736",
        "meta_mean_motion": 14.42006625,
        "meta_eccentricity": 0.00243587,
        "meta_inclination": 99.8211,
        "meta_ra_of_asc_node": 145.0762,
        "meta_arg_of_pericenter": 101.5156,
        "meta_mean_anomaly": 289.0641,
        "meta_ephemeris_type": 0,
        "meta_classification_type": "U",
        "meta_norad_cat_id": 31740,
        "meta_element_set_no": 999,
        "meta_rev_at_epoch": 64912,
        "meta_bstar": 0.0016124187,
        "meta_mean_motion_dot": 5.258e-05,
        "meta_mean_motion_ddot": 0,
        "tle_line1": "1 31740U 99025CEP 25335.42940399  .00005258  00000+0  16124-2 0  9993",
        "tle_line2": "2 31740  99.8211 145.0762 0024358 101.5156 289.0641 14.42006625649125"
      },
      "geometry": {
        "type": "Point",
        "coordinates": [
          -28.048291603804582,
          7.25456372736183
        ]
      }
    },
    {
      "type": "Feature",
      "properties": {
        "norad_id": 31742,
        "name": "FENGYUN 1C DEB",
        "group": "fengyun-1c-debris",
        "lat": -30.38405034769888,
        "lon": -154.8614260612101,
        "alt_km": 713.2262911678572,
        "timestamp": "2025-12-06T07:31:40.520759+00:00",
        "meta_object_name": "FENGYUN 1C DEB",
        "meta_object_id": "1999-025CER",
        "meta_epoch": "2025-12-01T20:55:18.603840",
        "meta_mean_motion": 14.39718292,
        "meta_eccentricity": 0.00771232,
        "meta_inclination": 98.9202,
        "meta_ra_of_asc_node": 195.2322,
        "meta_arg_of_pericenter": 1.5398,
        "meta_mean_anomaly": 358.6012,
        "meta_ephemeris_type": 0,
        "meta_classification_type": "U",
        "meta_norad_cat_id": 31742,
        "meta_element_set_no": 999,
        "meta_rev_at_epoch": 96493,
        "meta_bstar": 0.00077832626,
        "meta_mean_motion_dot": 2.475e-05,
        "meta_mean_motion_ddot": 0,
        "tle_line1": "1 31742U 99025CER 25335.87174310  .00002475  00000+0  77833-3 0  9999",
        "tle_line2": "2 31742  98.9202 195.2322 0077123   1.5398 358.6012 14.39718292964931"
      },
      "geometry": {
        "type": "Point",
        "coordinates": [
          -154.8614260612101,
          -30.38405034769888
        ]
      }
    },
    {
      "type": "Feature",
      "properties": {
        "norad_id": 31743,
        "name": "FENGYUN 1C DEB",
        "group": "fengyun-1c-debris",
        "lat": -67.39996096069251,
        "lon": 65.1395599552887,
        "alt_km": 768.3918771184872,
        "timestamp": "2025-12-06T07:31:40.520768+00:00",
        "meta_object_name": "FENGYUN 1C DEB",
        "meta_object_id": "1999-025CES",
        "meta_epoch": "2025-12-04T06:25:48.491040",
        "meta_mean_motion": 14.31179096,
        "meta_eccentricity": 0.003757,
        "meta_inclination": 99.1416,
        "meta_ra_of_asc_node": 265.7458,
        "meta_arg_of_pericenter": 244.5271,
        "meta_mean_anomaly": 270.1944,
        "meta_ephemeris_type": 0,
        "meta_classification_type": "U",
        "meta_norad_cat_id": 31743,
        "meta_element_set_no": 999,
        "meta_rev_at_epoch": 95519,
        "meta_bstar": 0.004069,
        "meta_mean_motion_dot": 0.00010794,
        "meta_mean_motion_ddot": 0,
        "tle_line1": "1 31743U 99025CES 25338.26792235  .00010794  00000+0  40690-2 0  9991",
        "tle_line2": "2 31743  99.1416 265.7458 0037570 244.5271 270.1944 14.31179096955191"
      },
      "geometry": {
        "type": "Point",
        "coordinates": [
          65.1395599552887,
          -67.39996096069251
        ]
      }
    },
    {
      "type": "Feature",
      "properties": {
        "norad_id": 31744,
        "name": "FENGYUN 1C DEB",
        "group": "fengyun-1c-debris",
        "lat": -6.770620384089822,
        "lon": -90.13100712972881,
        "alt_km": 964.0430867402711,
        "timestamp": "2025-12-06T07:31:40.520790+00:00",
        "meta_object_name": "FENGYUN 1C DEB",
        "meta_object_id": "1999-025CET",
        "meta_epoch": "2025-12-04T13:59:28.410144",
        "meta_mean_motion": 14.16423838,
        "meta_eccentricity": 0.0316256,
        "meta_inclination": 99.3063,
        "meta_ra_of_asc_node": 89.1727,
        "meta_arg_of_pericenter": 67.4972,
        "meta_mean_anomaly": 295.9356,
        "meta_ephemeris_type": 0,
        "meta_classification_type": "U",
        "meta_norad_cat_id": 31744,
        "meta_element_set_no": 999,
        "meta_rev_at_epoch": 94499,
        "meta_bstar": 0.0032306,
        "meta_mean_motion_dot": 0.00010446,
        "meta_mean_motion_ddot": 0,
        "tle_line1": "1 31744U 99025CET 25338.58296771  .00010446  00000+0  32306-2 0  9990",
        "tle_line2": "2 31744  99.3063  89.1727 0316256  67.4972 295.9356 14.16423838944997"
      },
      "geometry": {
        "type": "Point",
        "coordinates": [
          -90.13100712972881,
          -6.770620384089822
        ]
      }
    }
  ]
}